start=new Date('2023-03-20T00:00:00.000Z').valueOf();
sats=[{"ELEMENT_SET_NO":"999","FILE":"3865049","APOAPSIS":"540.480","EPOCH":"2023-03-19T11:17:28.260672","ARG_OF_PERICENTER":"87.3795","DECAY_DATE":null,"LAUNCH_DATE":"2021-12-18","MEAN_ELEMENT_THEORY":"SGP4","TLE_LINE1":"1 50201U 21125AX  23078.47046598  .00014230  00000-0  90990-3 0  9992","BSTAR":"0.00090990000000","MEAN_MOTION_DDOT":"0.0000000000000","RA_OF_ASC_NODE":"75.3545","INCLINATION":"53.2155","CENTER_NAME":"EARTH","PERIAPSIS":"538.897","MEAN_MOTION":"15.08858732","OBJECT_TYPE":"PAYLOAD","TLE_LINE2":"2 50201  53.2155  75.3545 0001144  87.3795 272.7328 15.08858732 72758","TIME_SYSTEM":"UTC","OBJECT_ID":"2021-125AX","MEAN_ANOMALY":"272.7328","GP_ID":"228443868","REV_AT_EPOCH":"7275","REF_FRAME":"TEME","EPHEMERIS_TYPE":"0","PERIOD":"95.436","CLASSIFICATION_TYPE":"U","RCS_SIZE":"LARGE","OBJECT_NAME":"STARLINK-3255","MEAN_MOTION_DOT":"0.00014230","NORAD_CAT_ID":"50201","SEMIMAJOR_AXIS":"6917.823","ECCENTRICITY":"0.00011440","COUNTRY_CODE":"US","SITE":"AFWTR"},{"ARG_OF_PERICENTER":"89.3213","DECAY_DATE":null,"EPOCH":"2023-03-19T17:11:08.226816","LAUNCH_DATE":"2021-12-18","MEAN_ELEMENT_THEORY":"SGP4","ELEMENT_SET_NO":"999","APOAPSIS":"540.592","FILE":"3865354","MEAN_MOTION":"15.08848655","TLE_LINE2":"2 50202  53.2156  74.2465 0001262  89.3213 270.7923 15.08848655 72782","OBJECT_TYPE":"PAYLOAD","BSTAR":"0.00018449000000","MEAN_MOTION_DDOT":"0.0000000000000","TLE_LINE1":"1 50202U 21125AY  23078.71606744  .00002650  00000-0  18449-3 0  9997","CENTER_NAME":"EARTH","PERIAPSIS":"538.846","INCLINATION":"53.2156","RA_OF_ASC_NODE":"74.2465","MEAN_ANOMALY":"270.7923","OBJECT_ID":"2021-125AY","TIME_SYSTEM":"UTC","REF_FRAME":"TEME","GP_ID":"228477297","REV_AT_EPOCH":"7278","ECCENTRICITY":"0.00012620","SITE":"AFWTR","COUNTRY_CODE":"US","RCS_SIZE":"LARGE","CLASSIFICATION_TYPE":"U","PERIOD":"95.437","EPHEMERIS_TYPE":"0","SEMIMAJOR_AXIS":"6917.854","OBJECT_NAME":"STARLINK-3256","MEAN_MOTION_DOT":"0.00002650","NORAD_CAT_ID":"50202"},{"DECAY_DATE":null,"ARG_OF_PERICENTER":"83.1363","EPOCH":"2023-03-19T16:12:51.044256","MEAN_ELEMENT_THEORY":"SGP4","LAUNCH_DATE":"2021-12-18","ELEMENT_SET_NO":"999","FILE":"3865354","APOAPSIS":"540.472","MEAN_MOTION":"15.08842703","OBJECT_TYPE":"PAYLOAD","TLE_LINE2":"2 50203  53.2153  74.4238 0001063  83.1363 276.9750 15.08842703 72848","TLE_LINE1":"1 50203U 21125AZ  23078.67559079  .00001071  00000-0  85354-4 0  9997","MEAN_MOTION_DDOT":"0.0000000000000","BSTAR":"0.00008535400000","RA_OF_ASC_NODE":"74.4238","CENTER_NAME":"EARTH","PERIAPSIS":"539.002","INCLINATION":"53.2153","TIME_SYSTEM":"UTC","MEAN_ANOMALY":"276.9750","OBJECT_ID":"2021-125AZ","REV_AT_EPOCH":"7284","GP_ID":"228477547","REF_FRAME":"TEME","ECCENTRICITY":"0.00010630","SITE":"AFWTR","COUNTRY_CODE":"US","PERIOD":"95.437","EPHEMERIS_TYPE":"0","RCS_SIZE":"LARGE","CLASSIFICATION_TYPE":"U","OBJECT_NAME":"STARLINK-3257","NORAD_CAT_ID":"50203","MEAN_MOTION_DOT":"0.00001071","SEMIMAJOR_AXIS":"6917.872"},{"RCS_SIZE":"LARGE","CLASSIFICATION_TYPE":"U","PERIOD":"95.437","EPHEMERIS_TYPE":"0","SEMIMAJOR_AXIS":"6917.864","OBJECT_NAME":"STARLINK-3254","MEAN_MOTION_DOT":"0.00002256","NORAD_CAT_ID":"50204","ECCENTRICITY":"0.00013410","SITE":"AFWTR","COUNTRY_CODE":"US","MEAN_ANOMALY":"268.1924","OBJECT_ID":"2021-125BA","TIME_SYSTEM":"UTC","REF_FRAME":"TEME","GP_ID":"228478299","REV_AT_EPOCH":"7284","BSTAR":"0.00015975000000","MEAN_MOTION_DDOT":"0.0000000000000","TLE_LINE1":"1 50204U 21125BA  23078.72343169  .00002256  00000-0  15975-3 0  9992","CENTER_NAME":"EARTH","PERIAPSIS":"538.801","INCLINATION":"53.2153","RA_OF_ASC_NODE":"74.2083","MEAN_MOTION":"15.08845465","OBJECT_TYPE":"PAYLOAD","TLE_LINE2":"2 50204  53.2153  74.2083 0001341  91.9222 268.1924 15.08845465 72849","ELEMENT_SET_NO":"999","APOAPSIS":"540.656","FILE":"3865354","DECAY_DATE":null,"ARG_OF_PERICENTER":"91.9222","EPOCH":"2023-03-19T17:21:44.498016","LAUNCH_DATE":"2021-12-18","MEAN_ELEMENT_THEORY":"SGP4"},{"TIME_SYSTEM":"UTC","OBJECT_ID":"2021-125BB","MEAN_ANOMALY":"274.1304","GP_ID":"228478047","REV_AT_EPOCH":"7319","REF_FRAME":"TEME","EPHEMERIS_TYPE":"0","PERIOD":"95.437","CLASSIFICATION_TYPE":"U","RCS_SIZE":"LARGE","NORAD_CAT_ID":"50205","MEAN_MOTION_DOT":"0.00004624","OBJECT_NAME":"STARLINK-3260","SEMIMAJOR_AXIS":"6917.842","ECCENTRICITY":"0.00008620","COUNTRY_CODE":"US","SITE":"AFWTR","ELEMENT_SET_NO":"999","FILE":"3865354","APOAPSIS":"540.304","EPOCH":"2023-03-19T14:21:36.893088","ARG_OF_PERICENTER":"85.9787","DECAY_DATE":null,"LAUNCH_DATE":"2021-12-18","MEAN_ELEMENT_THEORY":"SGP4","TLE_LINE1":"1 50205U 21125BB  23078.59834367  .00004624  00000-0  30832-3 0  9993","MEAN_MOTION_DDOT":"0.0000000000000","BSTAR":"0.00030832000000","RA_OF_ASC_NODE":"44.7719","INCLINATION":"53.2157","CENTER_NAME":"EARTH","PERIAPSIS":"539.111","MEAN_MOTION":"15.08852424","TLE_LINE2":"2 50205  53.2157  44.7719 0000862  85.9787 274.1304 15.08852424 73199","OBJECT_TYPE":"PAYLOAD"},{"EPOCH":"2023-03-19T11:05:29.518080","ARG_OF_PERICENTER":"94.3335","DECAY_DATE":null,"LAUNCH_DATE":"2021-12-18","MEAN_ELEMENT_THEORY":"SGP4","ELEMENT_SET_NO":"999","FILE":"3865049","APOAPSIS":"540.580","MEAN_MOTION":"15.08853597","TLE_LINE2":"2 50206  53.2156  75.3807 0001266  94.3335 265.7802 15.08853597 70670","OBJECT_TYPE":"PAYLOAD","TLE_LINE1":"1 50206U 21125BC  23078.46214720  .00005009  00000-0  33245-3 0  9994","MEAN_MOTION_DDOT":"0.0000000000000","BSTAR":"0.00033245000000","RA_OF_ASC_NODE":"75.3807","INCLINATION":"53.2156","CENTER_NAME":"EARTH","PERIAPSIS":"538.828","TIME_SYSTEM":"UTC","OBJECT_ID":"2021-125BC","MEAN_ANOMALY":"265.7802","REV_AT_EPOCH":"7067","GP_ID":"228443620","REF_FRAME":"TEME","ECCENTRICITY":"0.00012660","COUNTRY_CODE":"US","SITE":"AFWTR","EPHEMERIS_TYPE":"0","PERIOD":"95.437","CLASSIFICATION_TYPE":"U","RCS_SIZE":"LARGE","NORAD_CAT_ID":"50206","OBJECT_NAME":"STARLINK-3258","MEAN_MOTION_DOT":"0.00005009","SEMIMAJOR_AXIS":"6917.839"},{"OBJECT_NAME":"STARLINK-3262","MEAN_MOTION_DOT":"0.00010373","NORAD_CAT_ID":"50207","SEMIMAJOR_AXIS":"6917.827","PERIOD":"95.436","EPHEMERIS_TYPE":"0","RCS_SIZE":"LARGE","CLASSIFICATION_TYPE":"U","SITE":"AFWTR","COUNTRY_CODE":"US","ECCENTRICITY":"0.00014010","GP_ID":"228444870","REV_AT_EPOCH":"7074","REF_FRAME":"TEME","TIME_SYSTEM":"UTC","MEAN_ANOMALY":"272.9526","OBJECT_ID":"2021-125BD","RA_OF_ASC_NODE":"75.3647","CENTER_NAME":"EARTH","PERIAPSIS":"538.723","INCLINATION":"53.2155","TLE_LINE1":"1 50207U 21125BD  23078.46582741  .00010373  00000-0  66854-3 0  9998","BSTAR":"0.00066854000000","MEAN_MOTION_DDOT":"0.0000000000000","OBJECT_TYPE":"PAYLOAD","TLE_LINE2":"2 50207  53.2155  75.3647 0001401  87.1626 272.9526 15.08857555 70745","MEAN_MOTION":"15.08857555","FILE":"3865049","APOAPSIS":"540.661","ELEMENT_SET_NO":"999","MEAN_ELEMENT_THEORY":"SGP4","LAUNCH_DATE":"2021-12-18","ARG_OF_PERICENTER":"87.1626","DECAY_DATE":null,"EPOCH":"2023-03-19T11:10:47.488224"},{"TIME_SYSTEM":"UTC","OBJECT_ID":"2022-001A","MEAN_ANOMALY":"290.6772","GP_ID":"228444386","REV_AT_EPOCH":"6643","REF_FRAME":"TEME","EPHEMERIS_TYPE":"0","PERIOD":"95.438","CLASSIFICATION_TYPE":"U","RCS_SIZE":"LARGE","OBJECT_NAME":"STARLINK-3321","MEAN_MOTION_DOT":"0.00002577","NORAD_CAT_ID":"50803","SEMIMAJOR_AXIS":"6917.879","ECCENTRICITY":"0.00013110","COUNTRY_CODE":"US","SITE":"AFETR","ELEMENT_SET_NO":"999","FILE":"3865049","APOAPSIS":"540.650","EPOCH":"2023-03-19T12:23:40.156800","ARG_OF_PERICENTER":"69.4361","DECAY_DATE":null,"MEAN_ELEMENT_THEORY":"SGP4","LAUNCH_DATE":"2022-01-06","TLE_LINE1":"1 50803U 22001A   23078.51643700  .00002577  00000-0  17993-3 0  9990","MEAN_MOTION_DDOT":"0.0000000000000","BSTAR":"0.00017993000000","RA_OF_ASC_NODE":"5.1446","INCLINATION":"53.2162","PERIAPSIS":"538.837","CENTER_NAME":"EARTH","MEAN_MOTION":"15.08840603","OBJECT_TYPE":"PAYLOAD","TLE_LINE2":"2 50803  53.2162   5.1446 0001311  69.4361 290.6772 15.08840603 66439"},{"GP_ID":"228415218","REV_AT_EPOCH":"6781","REF_FRAME":"TEME","TIME_SYSTEM":"UTC","MEAN_ANOMALY":"264.9341","OBJECT_ID":"2022-001B","SITE":"AFETR","COUNTRY_CODE":"US","ECCENTRICITY":"0.00014550","NORAD_CAT_ID":"50804","OBJECT_NAME":"STARLINK-3323","MEAN_MOTION_DOT":"0.00015181","SEMIMAJOR_AXIS":"6917.819","PERIOD":"95.436","EPHEMERIS_TYPE":"0","RCS_SIZE":"LARGE","CLASSIFICATION_TYPE":"U","LAUNCH_DATE":"2022-01-06","MEAN_ELEMENT_THEORY":"SGP4","ARG_OF_PERICENTER":"95.1817","DECAY_DATE":null,"EPOCH":"2023-03-19T11:37:17.770944","FILE":"3864838","APOAPSIS":"540.691","ELEMENT_SET_NO":"999","OBJECT_TYPE":"PAYLOAD","TLE_LINE2":"2 50804  53.2162 355.2853 0001455  95.1817 264.9341 15.08860025 67811","MEAN_MOTION":"15.08860025","RA_OF_ASC_NODE":"355.2853","PERIAPSIS":"538.678","CENTER_NAME":"EARTH","INCLINATION":"53.2162","TLE_LINE1":"1 50804U 22001B   23078.48423346  .00015181  00000-0  96932-3 0  9994","BSTAR":"0.00096932000000","MEAN_MOTION_DDOT":"0.0000000000000"},{"SITE":"AFETR","COUNTRY_CODE":"US","ECCENTRICITY":"0.00009020","NORAD_CAT_ID":"50805","OBJECT_NAME":"STARLINK-3333","MEAN_MOTION_DOT":"0.00005214","SEMIMAJOR_AXIS":"6917.867","PERIOD":"95.437","EPHEMERIS_TYPE":"0","RCS_SIZE":"LARGE","CLASSIFICATION_TYPE":"U","GP_ID":"228443386","REV_AT_EPOCH":"6656","REF_FRAME":"TEME","TIME_SYSTEM":"UTC","MEAN_ANOMALY":"269.9107","OBJECT_ID":"2022-001C","TLE_LINE2":"2 50805  53.2169 355.3014 0000902  90.1989 269.9107 15.08844330 66567","OBJECT_TYPE":"PAYLOAD","MEAN_MOTION":"15.08844330","RA_OF_ASC_NODE":"355.3014","CENTER_NAME":"EARTH","PERIAPSIS":"539.108","INCLINATION":"53.2169","TLE_LINE1":"1 50805U 22001C   23078.48055679  .00005214  00000-0  34541-3 0  9999","BSTAR":"0.00034541000000","MEAN_MOTION_DDOT":"0.0000000000000","MEAN_ELEMENT_THEORY":"SGP4","LAUNCH_DATE":"2022-01-06","DECAY_DATE":null,"ARG_OF_PERICENTER":"90.1989","EPOCH":"2023-03-19T11:32:00.106656","FILE":"3865049","APOAPSIS":"540.356","ELEMENT_SET_NO":"999"}];
